ONEWEB-0431             
1 51630U 22012J   24054.84840296  .00000314  00000+0  86377-3 0  9999
2 51630  87.8941 204.0038 0001048  78.5567 281.5678 13.10375216100054
ONEWEB-0434             
1 51631U 22012K   24054.44399540 -.00000594  00000+0 -17381-2 0  9997
2 51631  87.8945 204.0908 0001731  95.2094 264.9231 13.10374576 98699
ONEWEB-0435             
1 51632U 22012L   24054.45211930 -.00000280  00000+0 -83736-3 0  9995
2 51632  87.8947 204.0794 0001731  85.9770 274.1556 13.10375550 98687
ONEWEB-0436             
1 51633U 22012M   24054.57505280  .00000086  00000+0  18860-3 0  9991
2 51633  87.9258 173.8525 0001850  98.5356 261.5985 13.17649731102450
ONEWEB-0438             
1 51634U 22012N   24054.81765813 -.00000536  00000+0 -15729-2 0  9991
2 51634  87.8943 204.0080 0001772 106.6504 253.4818 13.10371662100050
ONEWEB-0439             
1 51635U 22012P   24054.43911921 -.00000625  00000+0 -18272-2 0  9998
2 51635  87.8944 204.0665 0001524 100.9381 259.1918 13.10372763 98699
ONEWEB-0442             
1 51636U 22012Q   24054.79484548  .00010598  00000+0  27197-1 0  9991
2 51636  87.9255 173.8385 0001672 153.2209 206.9009 13.17733363103762
ONEWEB-0443             
1 51637U 22012R   24054.58612684  .00000046  00000+0  84349-4 0  9995
2 51637  87.9259 173.8866 0002174  97.3400 262.7978 13.17649670102491
